<?xml version="1.0" encoding="UTF-8"?>
<ndm xmlns:xsi="http://www.w3.org/2001/XMLSchema-instance" xsi:noNamespaceSchemaLocation="https://sanaregistry.org/r/ndmxml_unqualified/ndmxml-2.0.0-master-2.0.xsd">
<omm id="CCSDS_OMM_VERS" version="2.0">
<header><CREATION_DATE/><ORIGINATOR/></header><body><segment><metadata><OBJECT_NAME>ONEWEB-0311</OBJECT_NAME><OBJECT_ID>2021-075Y</OBJECT_ID><CENTER_NAME>EARTH</CENTER_NAME><REF_FRAME>TEME</REF_FRAME><TIME_SYSTEM>UTC</TIME_SYSTEM><MEAN_ELEMENT_THEORY>SGP4</MEAN_ELEMENT_THEORY></metadata><data><meanElements><EPOCH>2025-11-05T12:57:08.843616</EPOCH><MEAN_MOTION>13.17649770</MEAN_MOTION><ECCENTRICITY>.00013546</ECCENTRICITY><INCLINATION>87.9137</INCLINATION><RA_OF_ASC_NODE>50.3247</RA_OF_ASC_NODE><ARG_OF_PERICENTER>95.2901</ARG_OF_PERICENTER><MEAN_ANOMALY>264.8385</MEAN_ANOMALY></meanElements><tleParameters><EPHEMERIS_TYPE>0</EPHEMERIS_TYPE><CLASSIFICATION_TYPE>U</CLASSIFICATION_TYPE><NORAD_CAT_ID>49097</NORAD_CAT_ID><ELEMENT_SET_NO>999</ELEMENT_SET_NO><REV_AT_EPOCH>20417</REV_AT_EPOCH><BSTAR>-.5522644E-3</BSTAR><MEAN_MOTION_DOT>-.202E-5</MEAN_MOTION_DOT><MEAN_MOTION_DDOT>0</MEAN_MOTION_DDOT></tleParameters></data></segment></body></omm>
<omm id="CCSDS_OMM_VERS" version="2.0">
<header><CREATION_DATE/><ORIGINATOR/></header><body><segment><metadata><OBJECT_NAME>ONEWEB-0312</OBJECT_NAME><OBJECT_ID>2021-075Z</OBJECT_ID><CENTER_NAME>EARTH</CENTER_NAME><REF_FRAME>TEME</REF_FRAME><TIME_SYSTEM>UTC</TIME_SYSTEM><MEAN_ELEMENT_THEORY>SGP4</MEAN_ELEMENT_THEORY></metadata><data><meanElements><EPOCH>2025-11-05T13:19:02.190144</EPOCH><MEAN_MOTION>13.17649750</MEAN_MOTION><ECCENTRICITY>.00016261</ECCENTRICITY><INCLINATION>87.9129</INCLINATION><RA_OF_ASC_NODE>50.3503</RA_OF_ASC_NODE><ARG_OF_PERICENTER>88.9204</ARG_OF_PERICENTER><MEAN_ANOMALY>271.2114</MEAN_ANOMALY></meanElements><tleParameters><EPHEMERIS_TYPE>0</EPHEMERIS_TYPE><CLASSIFICATION_TYPE>U</CLASSIFICATION_TYPE><NORAD_CAT_ID>49098</NORAD_CAT_ID><ELEMENT_SET_NO>999</ELEMENT_SET_NO><REV_AT_EPOCH>20415</REV_AT_EPOCH><BSTAR>.17021582E-4</BSTAR><MEAN_MOTION_DOT>.19E-6</MEAN_MOTION_DOT><MEAN_MOTION_DDOT>0</MEAN_MOTION_DDOT></tleParameters></data></segment></body></omm>
<omm id="CCSDS_OMM_VERS" version="2.0">
<header><CREATION_DATE/><ORIGINATOR/></header><body><segment><metadata><OBJECT_NAME>ONEWEB-0313</OBJECT_NAME><OBJECT_ID>2021-075AA</OBJECT_ID><CENTER_NAME>EARTH</CENTER_NAME><REF_FRAME>TEME</REF_FRAME><TIME_SYSTEM>UTC</TIME_SYSTEM><MEAN_ELEMENT_THEORY>SGP4</MEAN_ELEMENT_THEORY></metadata><data><meanElements><EPOCH>2025-11-05T17:04:49.885536</EPOCH><MEAN_MOTION>13.17649562</MEAN_MOTION><ECCENTRICITY>.00016128</ECCENTRICITY><INCLINATION>87.9119</INCLINATION><RA_OF_ASC_NODE>50.3277</RA_OF_ASC_NODE><ARG_OF_PERICENTER>98.1932</ARG_OF_PERICENTER><MEAN_ANOMALY>261.9382</MEAN_ANOMALY></meanElements><tleParameters><EPHEMERIS_TYPE>0</EPHEMERIS_TYPE><CLASSIFICATION_TYPE>U</CLASSIFICATION_TYPE><NORAD_CAT_ID>49099</NORAD_CAT_ID><ELEMENT_SET_NO>999</ELEMENT_SET_NO><REV_AT_EPOCH>20416</REV_AT_EPOCH><BSTAR>-.52259071E-4</BSTAR><MEAN_MOTION_DOT>-.7E-7</MEAN_MOTION_DOT><MEAN_MOTION_DDOT>0</MEAN_MOTION_DDOT></tleParameters></data></segment></body></omm>
<omm id="CCSDS_OMM_VERS" version="2.0">
<header><CREATION_DATE/><ORIGINATOR/></header><body><segment><metadata><OBJECT_NAME>ONEWEB-0314</OBJECT_NAME><OBJECT_ID>2021-075AB</OBJECT_ID><CENTER_NAME>EARTH</CENTER_NAME><REF_FRAME>TEME</REF_FRAME><TIME_SYSTEM>UTC</TIME_SYSTEM><MEAN_ELEMENT_THEORY>SGP4</MEAN_ELEMENT_THEORY></metadata><data><meanElements><EPOCH>2025-11-05T18:05:46.727520</EPOCH><MEAN_MOTION>13.17649625</MEAN_MOTION><ECCENTRICITY>.00015758</ECCENTRICITY><INCLINATION>87.9137</INCLINATION><RA_OF_ASC_NODE>50.2666</RA_OF_ASC_NODE><ARG_OF_PERICENTER>87.6197</ARG_OF_PERICENTER><MEAN_ANOMALY>272.5115</MEAN_ANOMALY></meanElements><tleParameters><EPHEMERIS_TYPE>0</EPHEMERIS_TYPE><CLASSIFICATION_TYPE>U</CLASSIFICATION_TYPE><NORAD_CAT_ID>49100</NORAD_CAT_ID><ELEMENT_SET_NO>999</ELEMENT_SET_NO><REV_AT_EPOCH>20414</REV_AT_EPOCH><BSTAR>-.15349789E-3</BSTAR><MEAN_MOTION_DOT>-.47E-6</MEAN_MOTION_DOT><MEAN_MOTION_DDOT>0</MEAN_MOTION_DDOT></tleParameters></data></segment></body></omm>
<omm id="CCSDS_OMM_VERS" version="2.0">
<header><CREATION_DATE/><ORIGINATOR/></header><body><segment><metadata><OBJECT_NAME>ONEWEB-0315</OBJECT_NAME><OBJECT_ID>2021-075AC</OBJECT_ID><CENTER_NAME>EARTH</CENTER_NAME><REF_FRAME>TEME</REF_FRAME><TIME_SYSTEM>UTC</TIME_SYSTEM><MEAN_ELEMENT_THEORY>SGP4</MEAN_ELEMENT_THEORY></metadata><data><meanElements><EPOCH>2025-11-05T16:22:07.894848</EPOCH><MEAN_MOTION>13.12442641</MEAN_MOTION><ECCENTRICITY>.00013542</ECCENTRICITY><INCLINATION>87.8976</INCLINATION><RA_OF_ASC_NODE>35.0419</RA_OF_ASC_NODE><ARG_OF_PERICENTER>99.6905</ARG_OF_PERICENTER><MEAN_ANOMALY>260.4377</MEAN_ANOMALY></meanElements><tleParameters><EPHEMERIS_TYPE>0</EPHEMERIS_TYPE><CLASSIFICATION_TYPE>U</CLASSIFICATION_TYPE><NORAD_CAT_ID>49101</NORAD_CAT_ID><ELEMENT_SET_NO>999</ELEMENT_SET_NO><REV_AT_EPOCH>20585</REV_AT_EPOCH><BSTAR>.72201415E-3</BSTAR><MEAN_MOTION_DOT>.272E-5</MEAN_MOTION_DOT><MEAN_MOTION_DDOT>0</MEAN_MOTION_DDOT></tleParameters></data></segment></body></omm>
<omm id="CCSDS_OMM_VERS" version="2.0">
<header><CREATION_DATE/><ORIGINATOR/></header><body><segment><metadata><OBJECT_NAME>ONEWEB-0316</OBJECT_NAME><OBJECT_ID>2021-075AD</OBJECT_ID><CENTER_NAME>EARTH</CENTER_NAME><REF_FRAME>TEME</REF_FRAME><TIME_SYSTEM>UTC</TIME_SYSTEM><MEAN_ELEMENT_THEORY>SGP4</MEAN_ELEMENT_THEORY></metadata><data><meanElements><EPOCH>2025-11-05T15:02:27.286080</EPOCH><MEAN_MOTION>13.18687093</MEAN_MOTION><ECCENTRICITY>.00016957</ECCENTRICITY><INCLINATION>87.9226</INCLINATION><RA_OF_ASC_NODE>19.8694</RA_OF_ASC_NODE><ARG_OF_PERICENTER>99.2133</ARG_OF_PERICENTER><MEAN_ANOMALY>260.9191</MEAN_ANOMALY></meanElements><tleParameters><EPHEMERIS_TYPE>0</EPHEMERIS_TYPE><CLASSIFICATION_TYPE>U</CLASSIFICATION_TYPE><NORAD_CAT_ID>49102</NORAD_CAT_ID><ELEMENT_SET_NO>999</ELEMENT_SET_NO><REV_AT_EPOCH>20774</REV_AT_EPOCH><BSTAR>.27626293E-3</BSTAR><MEAN_MOTION_DOT>.122E-5</MEAN_MOTION_DOT><MEAN_MOTION_DDOT>0</MEAN_MOTION_DDOT></tleParameters></data></segment></body></omm>
<omm id="CCSDS_OMM_VERS" version="2.0">
<header><CREATION_DATE/><ORIGINATOR/></header><body><segment><metadata><OBJECT_NAME>ONEWEB-0317</OBJECT_NAME><OBJECT_ID>2021-075AE</OBJECT_ID><CENTER_NAME>EARTH</CENTER_NAME><REF_FRAME>TEME</REF_FRAME><TIME_SYSTEM>UTC</TIME_SYSTEM><MEAN_ELEMENT_THEORY>SGP4</MEAN_ELEMENT_THEORY></metadata><data><meanElements><EPOCH>2025-11-05T16:12:45.919872</EPOCH><MEAN_MOTION>13.12442474</MEAN_MOTION><ECCENTRICITY>.0002697</ECCENTRICITY><INCLINATION>87.8974</INCLINATION><RA_OF_ASC_NODE>35.0594</RA_OF_ASC_NODE><ARG_OF_PERICENTER>100.1497</ARG_OF_PERICENTER><MEAN_ANOMALY>259.9936</MEAN_ANOMALY></meanElements><tleParameters><EPHEMERIS_TYPE>0</EPHEMERIS_TYPE><CLASSIFICATION_TYPE>U</CLASSIFICATION_TYPE><NORAD_CAT_ID>49103</NORAD_CAT_ID><ELEMENT_SET_NO>999</ELEMENT_SET_NO><REV_AT_EPOCH>20587</REV_AT_EPOCH><BSTAR>.11955289E-2</BSTAR><MEAN_MOTION_DOT>.443E-5</MEAN_MOTION_DOT><MEAN_MOTION_DDOT>0</MEAN_MOTION_DDOT></tleParameters></data></segment></body></omm>
<omm id="CCSDS_OMM_VERS" version="2.0">
<header><CREATION_DATE/><ORIGINATOR/></header><body><segment><metadata><OBJECT_NAME>ONEWEB-0318</OBJECT_NAME><OBJECT_ID>2021-075AF</OBJECT_ID><CENTER_NAME>EARTH</CENTER_NAME><REF_FRAME>TEME</REF_FRAME><TIME_SYSTEM>UTC</TIME_SYSTEM><MEAN_ELEMENT_THEORY>SGP4</MEAN_ELEMENT_THEORY></metadata><data><meanElements><EPOCH>2025-11-05T14:57:41.447232</EPOCH><MEAN_MOTION>13.18687207</MEAN_MOTION><ECCENTRICITY>.0001568</ECCENTRICITY><INCLINATION>87.9233</INCLINATION><RA_OF_ASC_NODE>19.8572</RA_OF_ASC_NODE><ARG_OF_PERICENTER>97.9354</ARG_OF_PERICENTER><MEAN_ANOMALY>262.1956</MEAN_ANOMALY></meanElements><tleParameters><EPHEMERIS_TYPE>0</EPHEMERIS_TYPE><CLASSIFICATION_TYPE>U</CLASSIFICATION_TYPE><NORAD_CAT_ID>49104</NORAD_CAT_ID><ELEMENT_SET_NO>999</ELEMENT_SET_NO><REV_AT_EPOCH>20770</REV_AT_EPOCH><BSTAR>.7733338E-4</BSTAR><MEAN_MOTION_DOT>.43E-6</MEAN_MOTION_DOT><MEAN_MOTION_DDOT>0</MEAN_MOTION_DDOT></tleParameters></data></segment></body></omm>

</ndm>
