ONEWEB-0311             
1 49097U 21075Y   25309.53968569 -.00000202  00000+0 -55226-3 0  9992
2 49097  87.9137  50.3247 0001354  95.2901 264.8385 13.17649770204171
ONEWEB-0312             
1 49098U 21075Z   25309.55488646  .00000019  00000+0  17022-4 0  9995
2 49098  87.9129  50.3503 0001626  88.9204 271.2114 13.17649750204153
ONEWEB-0313             
1 49099U 21075AA  25309.71168849 -.00000007  00000+0 -52259-4 0  9994
2 49099  87.9119  50.3277 0001612  98.1932 261.9382 13.17649562204162
ONEWEB-0314             
1 49100U 21075AB  25309.75401305 -.00000047  00000+0 -15350-3 0  9992
2 49100  87.9137  50.2666 0001575  87.6197 272.5115 13.17649625204140
ONEWEB-0315             
1 49101U 21075AC  25309.68203582  .00000272  00000+0  72201-3 0  9998
2 49101  87.8976  35.0419 0001354  99.6905 260.4377 13.12442641205852
ONEWEB-0316             
1 49102U 21075AD  25309.62670470  .00000122  00000+0  27626-3 0  9992
2 49102  87.9226  19.8694 0001695  99.2133 260.9191 13.18687093207741
ONEWEB-0317             
1 49103U 21075AE  25309.67553148  .00000443  00000+0  11955-2 0  9993
2 49103  87.8974  35.0594 0002697 100.1497 259.9936 13.12442474205871
ONEWEB-0318             
1 49104U 21075AF  25309.62339638  .00000043  00000+0  77333-4 0  9995
2 49104  87.9233  19.8572 0001568  97.9354 262.1956 13.18687207207701
